API VERSION: 1.2
API SOURCE: NASA/JPL Horizons API

*******************************************************************************
 Revised: January 26, 2022             Saturn                               699
 
 PHYSICAL DATA:
  Mass x10^26 (kg)      = 5.6834          Density (g/cm^3)       =  0.687+-.001
  Equat. radius (1 bar) = 60268+-4 km     Polar radius (km)      = 54364+-10
  Vol. Mean Radius (km) = 58232+-6        Flattening             =  0.09796
  Geometric Albedo      = 0.47            Rocky core mass (Mc/M) =  0.1027
  Sid. rot. period (III)= 10h 39m 22.4s   Sid. rot. rate (rad/s) =  0.000163785 
  Mean solar day, hrs   =~10.656         
  GM (km^3/s^2)         = 37931206.234    GM 1-sigma (km^3/s^2)  = +- 98
  Equ. grav, ge (m/s^2) = 10.44           Pol. grav, gp (m/s^2)  = 12.14+-0.01
  Vis. magnitude V(1,0) = -8.88          
  Vis. mag. (opposition)= +0.67           Obliquity to orbit     = 26.73 deg
  Sidereal orbit period = 29.447498 yr    Sidereal orbit period  = 10755.698 d
  Mean daily motion     = 0.0334979 deg/d Mean orbit velocity    =  9.68 km/s
  Atmos. temp. (1 bar)  = 134+-4 K        Escape speed, km/s    =  35.5          
  Aroche(ice)/Rp        =  2.71           Hill's sphere rad. Rp  = 1100
                                 Perihelion  Aphelion    Mean
  Solar Constant (W/m^2)         16.8        13.6        15.1
  Maximum Planetary IR (W/m^2)    4.7         4.5         4.6
  Minimum Planetary IR (W/m^2)    4.7         4.5         4.6
*******************************************************************************


*******************************************************************************
Ephemeris / API_USER Thu Feb 19 13:06:53 2026 Pasadena, USA      / Horizons
*******************************************************************************
Target body name: Saturn (699)                    {source: sat441l}
Center body name: Earth (399)                     {source: DE441}
Center-site name: BODY CENTER
*******************************************************************************
Start time      : A.D. 2025-Nov-14 04:42:00.0000 TDB
Stop  time      : A.D. 2025-Nov-17 04:42:00.0000 TDB
Step-size       : 60 minutes
*******************************************************************************
Center geodetic : 0.0, 0.0, 0.0                   {E-lon(deg),Lat(deg),Alt(km)}
Center cylindric: 0.0, 0.0, 0.0                   {E-lon(deg),Dxy(km),Dz(km)}
Center radii    : 6378.137, 6378.137, 6356.752 km {Equator_a, b, pole_c}
Output units    : AU-D
Calendar mode   : Mixed Julian/Gregorian
Output type     : GEOMETRIC cartesian states
Output format   : 3 (position, velocity, LT, range, range-rate)
EOP file        : eop.260218.p260517
EOP coverage    : DATA-BASED 1962-JAN-20 TO 2026-FEB-18. PREDICTS-> 2026-MAY-16
Reference frame : Ecliptic of J2000.0
*******************************************************************************
JDTDB
   X     Y     Z
   VX    VY    VZ
   LT    RG    RR
*******************************************************************************
$$SOE
2460995.612500000 = A.D. 2025-Nov-16 02:42:00.0000 TDB 
 X = 8.938732168169080E+00 Y =-7.940881841101056E-01 Z =-3.791460818105943E-01
 VX= 1.382089571346484E-02 VY=-4.576390116169518E-03 VZ=-8.421932582952883E-05
 LT= 5.187536375355124E-02 RG= 8.981940801951231E+00 RR= 1.416255981377135E-02
2460995.654166667 = A.D. 2025-Nov-16 03:42:00.0000 TDB 
 X = 8.939308193221965E+00 Y =-7.942786552628096E-01 Z =-3.791495908752968E-01
 VX= 1.382830557917517E-02 VY=-4.566224125503464E-03 VZ=-8.421580000988063E-05
 LT= 5.187877271100447E-02 RG= 8.982531044637273E+00 RR= 1.416908769632753E-02
2460995.695833333 = A.D. 2025-Nov-16 04:42:00.0000 TDB 
 X = 8.939884526863244E+00 Y =-7.944687026965580E-01 Z =-3.791530997956131E-01
 VX= 1.383570794962719E-02 VY=-4.556051606495091E-03 VZ=-8.421239542055669E-05
 LT= 5.188218323834379E-02 RG= 8.983121559140667E+00 RR= 1.417560704023781E-02
2460995.737500000 = A.D. 2025-Nov-16 05:42:00.0000 TDB 
 X = 8.940461168779773E+00 Y =-7.946583261393847E-01 Z =-3.791566085765977E-01
 VX= 1.384310278437274E-02 VY=-4.545872562036085E-03 VZ=-8.420911191368277E-05
 LT= 5.188559533350979E-02 RG= 8.983712345104831E+00 RR= 1.418211780687864E-02
2460995.779166667 = A.D. 2025-Nov-16 06:42:00.0000 TDB 
 X = 8.941038118656696E+00 Y =-7.948475253195194E-01 Z =-3.791601172232590E-01
 VX= 1.385049004143815E-02 VY=-4.535686998722503E-03 VZ=-8.420594735588833E-05
 LT= 5.188900899443358E-02 RG= 8.984303402171555E+00 RR= 1.418861995635531E-02
2460995.820833333 = A.D. 2025-Nov-16 07:42:00.0000 TDB 
 X = 8.941615376177385E+00 Y =-7.950362999655544E-01 Z =-3.791636257404695E-01
 VX= 1.385786967787934E-02 VY=-4.525494927451883E-03 VZ=-8.420289733703957E-05
 LT= 5.189242421903662E-02 RG= 8.984894729980949E+00 RR= 1.419511344809547E-02
2460995.862500000 = A.D. 2025-Nov-16 08:42:00.0000 TDB 
 X = 8.942192941023412E+00 Y =-7.952246498066351E-01 Z =-3.791671341328660E-01
 VX= 1.386524165059298E-02 VY=-4.515296363978988E-03 VZ=-8.419995491827775E-05
 LT= 5.189584100523055E-02 RG= 8.985486328171422E+00 RR= 1.420159824169516E-02
2460995.904166667 = A.D. 2025-Nov-16 09:42:00.0000 TDB 
 X = 8.942770812874574E+00 Y =-7.954125745726726E-01 Z =-3.791706424047413E-01
 VX= 1.387260591739303E-02 VY=-4.505091329326720E-03 VZ=-8.419711047759000E-05
 LT= 5.189925935091745E-02 RG= 8.986078196379736E+00 RR= 1.420807429802065E-02
2460995.945833333 = A.D. 2025-Nov-16 10:42:00.0000 TDB 
 X = 8.943348991408945E+00 Y =-7.956000739945664E-01 Z =-3.791741505599303E-01
 VX= 1.387996243832205E-02 VY=-4.494879849948867E-03 VZ=-8.419435170782363E-05
 LT= 5.190267925399029E-02 RG= 8.986670334241063E+00 RR= 1.421454158052814E-02
2460995.987500000 = A.D. 2025-Nov-16 11:42:00.0000 TDB 
 X = 8.943927476303012E+00 Y =-7.957871478044298E-01 Z =-3.791776586017022E-01
 VX= 1.388731117711948E-02 VY=-4.484661957557073E-03 VZ=-8.419166380991788E-05
 LT= 5.190610071233363E-02 RG= 8.987262741389134E+00 RR= 1.422100005671833E-02
2460996.029166667 = A.D. 2025-Nov-16 12:42:00.0000 TDB 
 X = 8.944506267231851E+00 Y =-7.959737957357971E-01 Z =-3.791811665326651E-01
 VX= 1.389465210272427E-02 VY=-4.474437688554629E-03 VZ=-8.418902990370466E-05
 LT= 5.190952372382494E-02 RG= 8.987855417456435E+00 RR= 1.422744969959944E-02
2460996.070833333 = A.D. 2025-Nov-16 13:42:00.0000 TDB 
 X = 8.945085363869381E+00 Y =-7.961600175238014E-01 Z =-3.791846743546898E-01
 VX= 1.390198519064932E-02 VY=-4.464207083062812E-03 VZ=-8.418643165193537E-05
 LT= 5.191294828633592E-02 RG= 8.988448362074468E+00 RR= 1.423389048899543E-02
2460996.112500000 = A.D. 2025-Nov-16 14:42:00.0000 TDB 
 X = 8.945664765888644E+00 Y =-7.963458129053019E-01 Z =-3.791881820688672E-01
 VX= 1.390931042404008E-02 VY=-4.453970183576720E-03 VZ=-8.418385006276962E-05
 LT= 5.191637439773431E-02 RG= 8.989041574874044E+00 RR= 1.424032241251458E-02
2460996.154166667 = A.D. 2025-Nov-16 15:42:00.0000 TDB 
 X = 8.946244472962167E+00 Y =-7.965311816189508E-01 Z =-3.791916896754990E-01
 VX= 1.391662779422729E-02 VY=-4.443727033343454E-03 VZ=-8.418126640499144E-05
 LT= 5.191980205588596E-02 RG= 8.989635055485643E+00 RR= 1.424674546599456E-02
2460996.195833333 = A.D. 2025-Nov-16 16:42:00.0000 TDB 
 X = 8.946824484762276E+00 Y =-7.967161234051859E-01 Z =-3.791951971741279E-01
 VX= 1.392393730061331E-02 VY=-4.433477674607824E-03 VZ=-8.417866314365993E-05
 LT= 5.192323125865661E-02 RG= 8.990228803539734E+00 RR= 1.425315965327324E-02
2460996.237500000 = A.D. 2025-Nov-16 17:42:00.0000 TDB 
 X = 8.947404800961422E+00 Y =-7.969006380061565E-01 Z =-3.791987045636057E-01
 VX= 1.393123894980526E-02 VY=-4.423222146913118E-03 VZ=-8.417602478628463E-05
 LT= 5.192666200391381E-02 RG= 8.990822818667091E+00 RR= 1.425956498521093E-02
2460996.279166667 = A.D. 2025-Nov-16 18:42:00.0000 TDB 
 X = 8.947985421232465E+00 Y =-7.970847251655764E-01 Z =-3.792022118421933E-01
 VX= 1.393853275403761E-02 VY=-4.412960485666621E-03 VZ=-8.417333852761827E-05
 LT= 5.193009428952842E-02 RG= 8.991417100499065E+00 RR= 1.426596147802019E-02
2460996.320833333 = A.D. 2025-Nov-16 19:42:00.0000 TDB 
 X = 8.948566345248853E+00 Y =-7.972683846285309E-01 Z =-3.792057190076806E-01
 VX= 1.394581872912526E-02 VY=-4.402692721171307E-03 VZ=-8.417059460135016E-05
 LT= 5.193352811337565E-02 RG= 8.992011648667763E+00 RR= 1.427234915115738E-02
2460996.362500000 = A.D. 2025-Nov-16 20:42:00.0000 TDB 
 X = 8.949147572684730E+00 Y =-7.974516161412541E-01 Z =-3.792092260575147E-01
 VX= 1.395309689247120E-02 VY=-4.392418878273973E-03 VZ=-8.416778629756647E-05
 LT= 5.193696347333555E-02 RG= 8.992606462806121E+00 RR= 1.427872802530885E-02
2460996.404166667 = A.D. 2025-Nov-16 21:42:00.0000 TDB 
 X = 8.949729103214977E+00 Y =-7.976344194509069E-01 Z =-3.792127329889223E-01
 VX= 1.396036726203490E-02 VY=-4.382138976672882E-03 VZ=-8.416490969418152E-05
 LT= 5.194040036729316E-02 RG= 8.993201542547952E+00 RR= 1.428509812137982E-02
2460996.445833333 = A.D. 2025-Nov-16 22:42:00.0000 TDB 
 X = 8.950310936515256E+00 Y =-7.978167943053767E-01 Z =-3.792162397990187E-01
 VX= 1.396762985766744E-02 VY=-4.371853031749405E-03 VZ=-8.416196328856207E-05
 LT= 5.194383879313873E-02 RG= 8.993796887527960E+00 RR= 1.429145946188073E-02
2460996.487500000 = A.D. 2025-Nov-16 23:42:00.0000 TDB 
 X = 8.950893072262186E+00 Y =-7.979987404531191E-01 Z =-3.792197464849038E-01
 VX= 1.397488470685352E-02 VY=-4.361561055522155E-03 VZ=-8.415894791256683E-05
 LT= 5.194727874876861E-02 RG= 8.994392497381913E+00 RR= 1.429781207672211E-02
2460996.529166667 = A.D. 2025-Nov-17 00:42:00.0000 TDB 
 X = 8.951475510133525E+00 Y =-7.981802576429725E-01 Z =-3.792232530437756E-01
 VX= 1.398213182907319E-02 VY=-4.351263052721120E-03 VZ=-8.415586766325823E-05
 LT= 5.195072023208631E-02 RG= 8.994988371746812E+00 RR= 1.430415598734251E-02
